CCSDS_OMM_VERS = 2.0
CREATION_DATE  = 
ORIGINATOR     = 

OBJECT_NAME    = 1998-067XK
OBJECT_ID      = 1998-067XK
CENTER_NAME    = EARTH
REF_FRAME      = TEME
TIME_SYSTEM    = UTC
MEAN_ELEMENT_THEORY = SGP/SGP4

EPOCH          = 2026-01-22T11:00:05.622624
MEAN_MOTION    = 15.76510210
ECCENTRICITY   = .0004375
INCLINATION    = 51.6253
RA_OF_ASC_NODE = 289.1767
ARG_OF_PERICENTER = 128.4787
MEAN_ANOMALY   = 231.6606

EPHEMERIS_TYPE = 0
CLASSIFICATION_TYPE = U
NORAD_CAT_ID   = 65731
ELEMENT_SET_NO = 999
REV_AT_EPOCH   = 1954
BSTAR          = .10766E-2
MEAN_MOTION_DOT = .177935E-2
MEAN_MOTION_DDOT = 0

CCSDS_OMM_VERS = 2.0
CREATION_DATE  = 
ORIGINATOR     = 

OBJECT_NAME    = YOTSUBA-KULOVER
OBJECT_ID      = 1998-067XN
CENTER_NAME    = EARTH
REF_FRAME      = TEME
TIME_SYSTEM    = UTC
MEAN_ELEMENT_THEORY = SGP/SGP4

EPOCH          = 2026-01-20T00:35:13.186752
MEAN_MOTION    = 15.65739151
ECCENTRICITY   = .00043261
INCLINATION    = 51.6285
RA_OF_ASC_NODE = 306.6936
ARG_OF_PERICENTER = 132.7917
MEAN_ANOMALY   = 227.3443

EPHEMERIS_TYPE = 0
CLASSIFICATION_TYPE = U
NORAD_CAT_ID   = 65941
ELEMENT_SET_NO = 999
REV_AT_EPOCH   = 1584
BSTAR          = .12199895E-2
MEAN_MOTION_DOT = .127352E-2
MEAN_MOTION_DDOT = 0

CCSDS_OMM_VERS = 2.0
CREATION_DATE  = 
ORIGINATOR     = 

OBJECT_NAME    = BOTAN
OBJECT_ID      = 1998-067XP
CENTER_NAME    = EARTH
REF_FRAME      = TEME
TIME_SYSTEM    = UTC
MEAN_ELEMENT_THEORY = SGP/SGP4

EPOCH          = 2026-01-21T20:52:03.097056
MEAN_MOTION    = 15.74680416
ECCENTRICITY   = .00066895
INCLINATION    = 51.6191
RA_OF_ASC_NODE = 294.9954
ARG_OF_PERICENTER = 128.0222
MEAN_ANOMALY   = 232.1381

EPHEMERIS_TYPE = 0
CLASSIFICATION_TYPE = U
NORAD_CAT_ID   = 65942
ELEMENT_SET_NO = 999
REV_AT_EPOCH   = 1616
BSTAR          = .15019672E-2
MEAN_MOTION_DOT = .230928E-2
MEAN_MOTION_DDOT = 0

CCSDS_OMM_VERS = 2.0
CREATION_DATE  = 
ORIGINATOR     = 

OBJECT_NAME    = E-KAGAKU-1
OBJECT_ID      = 1998-067XQ
CENTER_NAME    = EARTH
REF_FRAME      = TEME
TIME_SYSTEM    = UTC
MEAN_ELEMENT_THEORY = SGP/SGP4

EPOCH          = 2026-01-21T20:59:52.803744
MEAN_MOTION    = 15.66399445
ECCENTRICITY   = .00029887
INCLINATION    = 51.6287
RA_OF_ASC_NODE = 297.3080
ARG_OF_PERICENTER = 147.0300
MEAN_ANOMALY   = 213.0882

EPHEMERIS_TYPE = 0
CLASSIFICATION_TYPE = U
NORAD_CAT_ID   = 65943
ELEMENT_SET_NO = 999
REV_AT_EPOCH   = 1613
BSTAR          = .1163576E-2
MEAN_MOTION_DOT = .124645E-2
MEAN_MOTION_DDOT = 0

CCSDS_OMM_VERS = 2.0
CREATION_DATE  = 
ORIGINATOR     = 

OBJECT_NAME    = HRC MONOBLOCK CAMERA
OBJECT_ID      = 1998-067XR
CENTER_NAME    = EARTH
REF_FRAME      = TEME
TIME_SYSTEM    = UTC
MEAN_ELEMENT_THEORY = SGP/SGP4

EPOCH          = 2026-01-21T23:50:07.389312
MEAN_MOTION    = 15.57379554
ECCENTRICITY   = .0000824
INCLINATION    = 51.6298
RA_OF_ASC_NODE = 300.3420
ARG_OF_PERICENTER = 27.5149
MEAN_ANOMALY   = 332.5886

EPHEMERIS_TYPE = 0
CLASSIFICATION_TYPE = U
NORAD_CAT_ID   = 66052
ELEMENT_SET_NO = 999
REV_AT_EPOCH   = 1510
BSTAR          = .73207212E-3
MEAN_MOTION_DOT = .54522E-3
MEAN_MOTION_DDOT = 0

CCSDS_OMM_VERS = 2.0
CREATION_DATE  = 
ORIGINATOR     = 

OBJECT_NAME    = HTV-X1
OBJECT_ID      = 2025-241A
CENTER_NAME    = EARTH
REF_FRAME      = TEME
TIME_SYSTEM    = UTC
MEAN_ELEMENT_THEORY = SGP/SGP4

EPOCH          = 2026-01-22T04:11:09.201120
MEAN_MOTION    = 15.49548134
ECCENTRICITY   = .00078093
INCLINATION    = 51.6328
RA_OF_ASC_NODE = 302.3013
ARG_OF_PERICENTER = 45.1395
MEAN_ANOMALY   = 315.0227

EPHEMERIS_TYPE = 0
CLASSIFICATION_TYPE = U
NORAD_CAT_ID   = 66174
ELEMENT_SET_NO = 999
REV_AT_EPOCH   = 51
BSTAR          = .2956228E-3
MEAN_MOTION_DOT = .16198E-3
MEAN_MOTION_DDOT = 0

CCSDS_OMM_VERS = 2.0
CREATION_DATE  = 
ORIGINATOR     = 

OBJECT_NAME    = SZ-21 MODULE
OBJECT_ID      = 2025-246C
CENTER_NAME    = EARTH
REF_FRAME      = TEME
TIME_SYSTEM    = UTC
MEAN_ELEMENT_THEORY = SGP/SGP4

EPOCH          = 2026-01-22T08:25:01.350912
MEAN_MOTION    = 15.65040876
ECCENTRICITY   = .0003051
INCLINATION    = 41.4761
RA_OF_ASC_NODE = 127.8574
ARG_OF_PERICENTER = 220.9583
MEAN_ANOMALY   = 139.1029

EPHEMERIS_TYPE = 0
CLASSIFICATION_TYPE = U
NORAD_CAT_ID   = 66515
ELEMENT_SET_NO = 999
REV_AT_EPOCH   = 1080
BSTAR          = .35651E-3
MEAN_MOTION_DOT = .35923E-3
MEAN_MOTION_DDOT = 0

CCSDS_OMM_VERS = 2.0
CREATION_DATE  = 
ORIGINATOR     = 

OBJECT_NAME    = SHENZHOU-22
OBJECT_ID      = 2025-272A
CENTER_NAME    = EARTH
REF_FRAME      = TEME
TIME_SYSTEM    = UTC
MEAN_ELEMENT_THEORY = SGP/SGP4

EPOCH          = 2026-01-22T07:15:25.008192
MEAN_MOTION    = 15.60894095
ECCENTRICITY   = .00104838
INCLINATION    = 41.4671
RA_OF_ASC_NODE = 130.1396
ARG_OF_PERICENTER = 335.9522
MEAN_ANOMALY   = 24.0826

EPHEMERIS_TYPE = 0
CLASSIFICATION_TYPE = U
NORAD_CAT_ID   = 66645
ELEMENT_SET_NO = 999
REV_AT_EPOCH   = 26764
BSTAR          = .30041017E-3
MEAN_MOTION_DOT = .25665E-3
MEAN_MOTION_DDOT = 0

CCSDS_OMM_VERS = 2.0
CREATION_DATE  = 
ORIGINATOR     = 

OBJECT_NAME    = SOYUZ-MS 28
OBJECT_ID      = 2025-275A
CENTER_NAME    = EARTH
REF_FRAME      = TEME
TIME_SYSTEM    = UTC
MEAN_ELEMENT_THEORY = SGP/SGP4

EPOCH          = 2026-01-22T05:44:01.303872
MEAN_MOTION    = 15.49550203
ECCENTRICITY   = .000771
INCLINATION    = 51.6328
RA_OF_ASC_NODE = 301.9816
ARG_OF_PERICENTER = 45.6250
MEAN_ANOMALY   = 314.5369

EPHEMERIS_TYPE = 0
CLASSIFICATION_TYPE = U
NORAD_CAT_ID   = 66664
ELEMENT_SET_NO = 999
REV_AT_EPOCH   = 54913
BSTAR          = .28748E-3
MEAN_MOTION_DOT = .1574E-3
MEAN_MOTION_DDOT = 0

CCSDS_OMM_VERS = 2.0
CREATION_DATE  = 
ORIGINATOR     = 

OBJECT_NAME    = DUPLEX
OBJECT_ID      = 1998-067XS
CENTER_NAME    = EARTH
REF_FRAME      = TEME
TIME_SYSTEM    = UTC
MEAN_ELEMENT_THEORY = SGP/SGP4

EPOCH          = 2026-01-22T11:52:54.867936
MEAN_MOTION    = 15.52979009
ECCENTRICITY   = .0002036
INCLINATION    = 51.6313
RA_OF_ASC_NODE = 299.9430
ARG_OF_PERICENTER = 44.0260
MEAN_ANOMALY   = 316.0892

EPHEMERIS_TYPE = 0
CLASSIFICATION_TYPE = U
NORAD_CAT_ID   = 66906
ELEMENT_SET_NO = 999
REV_AT_EPOCH   = 794
BSTAR          = .46813E-3
MEAN_MOTION_DOT = .29359E-3
MEAN_MOTION_DDOT = 0

CCSDS_OMM_VERS = 2.0
CREATION_DATE  = 
ORIGINATOR     = 

OBJECT_NAME    = 1998-067XT
OBJECT_ID      = 1998-067XT
CENTER_NAME    = EARTH
REF_FRAME      = TEME
TIME_SYSTEM    = UTC
MEAN_ELEMENT_THEORY = SGP/SGP4

EPOCH          = 2026-01-22T11:41:25.644768
MEAN_MOTION    = 15.57862932
ECCENTRICITY   = .0003393
INCLINATION    = 51.6297
RA_OF_ASC_NODE = 299.1400
ARG_OF_PERICENTER = 103.7988
MEAN_ANOMALY   = 256.3382

EPHEMERIS_TYPE = 0
CLASSIFICATION_TYPE = U
NORAD_CAT_ID   = 66907
ELEMENT_SET_NO = 999
REV_AT_EPOCH   = 795
BSTAR          = .13011E-2
MEAN_MOTION_DOT = .99657E-3
MEAN_MOTION_DDOT = 0

